Site,DepthOri,Depth,SourcePaleodepth,,Mask,assessment,Type,File,doi,lonbci,latbci,Proxy,lon0,lat0,lonb,latb,lonh,lath,lonbc,latbc,deepMIPprePETM,deepMIPprePETMstd,deepMIPprePETMn,deepMIPPETM,deepMIPPETMstd,deepMIPPETMn,,prePETMmean,prePETMstd,prePETMn,peakPETM,peakPETMstd,peakPETMn,PETMmean,PETMstd,PETMn,postPETMmean,postPETMstd,postPETMn,Glassy,mg_bcp_red,d18osw_local,d18osw_1x,d18osw_3x,d18osw_6x,d18osw_9x,JESS NOTES
DSDP 277,,900,,,,deepMIP,MgCa,Hines et al. 2017,https://doi.org/10.1016/j.palaeo.2017.02.037,-168.55,-56.15,mgca_morozovella:barker,166.1913333,-52.22383333,-168.55,-56.15,-173.95,-62.45,-168.55,-58.15,,,,4.73,0.51,7,,,,,5.84,,1,4.734,0.511,7,,,,,mg_bcp,,,,,,
DSDP 277,,900,,,,deepMIP,MgCa,Hines et al. 2017,https://doi.org/10.1016/j.palaeo.2017.02.037,-168.55,-56.15,mgca_acarinina:barker,166.1913333,-52.22383333,-168.55,-56.15,-173.95,-62.45,-168.55,-58.15,3.73,0.3,7,4.59,1.19,8,,3.79,0.276,7,5.85,,1,4.585,0.562,8,3.000051611,0.375659652,6,,mg_bcp,,,,,,
IODP 302 ACEX,,,,,,deepMIP,TEX86,"Sluijs et al., 2020",https://doi.org/10.5194/cp-16-2381-2020,26.15,76.95,tex86,136.18,87.87,26.15,76.95,9.3,83,26.15,76.95,0.588,0.022,2,0.639,0.016,15,,0.608,0.018,11,0.63,,1,0.616,0.018,19,0.555333333,0.014573296,15,,,nan,nan,nan,nan,nan,I recalculated this using the Sluijs2020 updated data from ACEX
DSDP 401,,1900,,,,deepMIP,d18O,"Gutjahr et al., 2017; Bornemann et al., 2014",https://doi.org/10.1016/j.epsl.2014.03.017; http://dx.doi.org/10.1038/nature23646,-10.95,41.8,d18o_m.subb,-8.810333333,47.4275,-4.25,35.55,-10.95,41.8,-10.95,41.8,-1.06,0.21,14,-2.46,0.16,26,,-1.769,0.151,16,-2.657,,2,-2.442,0.157,31,-2.289302621,0.184135721,48,glassy,,-0.58454,-0.4452,-1.1415,-0.6386,-1.2671,
DSDP 401,,1900,,,,deepMIP,MgCa,"Gutjahr et al., 2017; Bornemann et al., 2014",https://doi.org/10.1016/j.epsl.2014.03.017,-10.95,41.8,mgca_m.subb:barker,-8.810333333,47.4275,-4.25,35.55,-10.95,41.8,-10.95,41.8,3.42,0.07,13,3.86,0.12,11,,3.45,0.117,9,4.029,,2,3.836,0.155,18,3.573058487,0.085885289,22,,mg_bcp,nan,nan,nan,nan,nan,combined with gutjahr in the deepMIP numbers above
DSDP 401,,,,,,deepMIP,d18O,"Bornemann et al., 2014",https://doi.org/10.1016/j.epsl.2014.03.017,-10.95,41.8,d18o_a.soldadoensis,-8.810333333,47.4275,-4.25,35.55,-10.95,41.8,-10.95,41.8,-1.5,0.4,15,-1.76,0.32,12,,-1.734,0.252,10,-2.478,,1,-1.82,0.345,14,-2.044772727,0.310406789,22,glassy,,-0.58454,-0.4452,-1.1415,-0.6386,-1.2671,
DSDP 527,,3400,,,,deepMIP,MgCa,"Tripati et al., 2005",https://doi.org/10.1029/2003GC000631,-17.75,-34.95,mgca_acarinina:barker,1.76,-28.04,-3.8,-41.45,-17.75,-34.95,-17.75,-34.95,3.39,0.11,11,4.02,0.17,7,,3.542,0.158,12,4.241,,1,3.977,0.214,6,3.66767,0.211048989,15,,mg_bcp,nan,nan,nan,nan,nan,
DSDP 527,,3400,,,,deepMIP,MgCa,"Tripati et al., 2005",https://doi.org/10.1029/2003GC000631,-17.75,-34.95,mgca_m.subb:barker,1.76,-28.04,-3.8,-41.45,-17.75,-34.95,-17.75,-34.95,3.48,0.15,7,4.27,0.42,2,,3.44,0.201,3,4.567,,1,4.567,0,1,3.81791,0.156074252,4,,mg_bcp,nan,nan,nan,nan,nan,
ODP 690,,,,,,deepMIP,d18O,"Kozdon et al., 2020",https://doi.org/10.1029/2019PA003811,-8.55,-70.75,d18o_acarinina,1.2,-65.16,1.45,-71.4,-11.35,-65.05,-5,-65.05,-2.12,0.44,3,-2.52,0.6,13,,-2.183,1.096,12,-2.436,0.153,5,-2.249,0.402,22,-3.37,0.798707289,4,glassy,,-1.1245,-1.0866,-1.0474,-2.1687,-3.074,
ODP 690,,1900,,,,deepMIP,MgCa,"Kozdon et al., 2020",https://doi.org/10.1029/2019PA003811,-8.55,-70.75,mgca_acarinina:reductive,1.2,-65.16,1.45,-71.4,-11.35,-65.05,-5,-65.05,2.65,0.42,5,3.39,0.49,12,,2.92,1.198,10,3.94,1.117,2,3.424,0.803,22,3.114285714,0.737808854,7,,mg_bcp,,nan,nan,nan,nan,this should be mg_bcp - I changed it
ODP 865,,,,,,deepMIP,d18O,"Kozdon et al., 2013",https://doi.org/10.1002/palo.20048,-138.05,10.35,d18o_morozovella,-179.55,18.43,-138.05,10.35,-163.85,4.85,-138.05,10.35,-3.63,0.26,7,-3.88,0.46,12,,-3.258,0.247,5,-4.27,,1,-4.127,0.159,6,-3.44,0.291547595,4,glassy,,-0.1536,-0.9152,-0.6491,-0.8458,-0.8966,
ODP 865,,1400,,,,deepMIP,MgCa,"Tripati et al., 2004",https://doi.org/10.1029/2003GC000631,-138.05,10.35,mgca_morozovella:barker,-179.55,18.43,-138.05,10.35,-163.85,4.85,-138.05,10.35,3.96,0.16,12,4.5,0.17,8,,3.9,0.211,10,4.711,,1,4.668,0.06,2,4.41743,0.189689702,11,,mg_bcp,nan,nan,nan,nan,nan,
ODP 865,,1400,,,,deepMIP,MgCa,"Tripati et al., 2004",https://doi.org/10.1029/2003GC000631,-138.05,10.35,mgca_acarinina:barker,-179.55,18.43,-138.05,10.35,-163.85,4.85,-138.05,10.35,4.03,0.3,13,4.72,0.19,9,,4.058,0.279,10,4.691,,1,4.647,0.063,2,4.47168,0.180745237,12,,mg_bcp,nan,nan,nan,nan,nan,
ODP 959,2091,1000,,,,deepMIP,TEX86,"Frieling et al., 2019",https://doi.org/10.5194/cp-14-39-2018,-15.63583,-3.5225,tex86,-2.73583,3.6275,-3.4,-9.15,-8.55,-2.65,-3.4,-10,0.843,0.013,17,0.961,0.004,14,,0.859,0.014,9,0.964,0.002,4,0.96,0.004,12,0.878,0,1,,,,,,,,
ODP 1172,,,,,,deepMIP,TEX86,"Sluijs et al., 2011",https://doi.org/10.5194/cp-7-47-2011,142,-64.45,tex86,150,-44,169.35,-58.75,149,-64.45,149,-64.45,0.652,0.019,30,0.787,0.023,8,,0.656,0.015,20,0.82,,1,0.774,0.029,11,0.652002319,0.014361,10,,,nan,nan,nan,nan,nan,
ODP 1209,,2250,,,,deepMIP,MgCa,"Zachos et al., 2003",https://doi.org/10.1126/science.1090110,-155.45,28.35,mgca_morozovella:reductive,158.51,32.65,-155.45,28.35,-171.45,22.2,-155.45,28.35,3.52,0.21,24,5.21,0.26,32,,3.569,0.129,15,5.506,0.062,4,5.154,0.244,26,5.003875,0.354008453,16,,mg_red,nan,nan,nan,nan,nan,
ODP 1209,,2250,,,,deepMIP,MgCa,"Zachos et al., 2003",https://doi.org/10.1126/science.1090110,-155.45,28.35,mgca_acarinina:reductive,158.51,32.65,-155.45,28.35,-171.45,22.2,-155.45,28.35,3.43,0.15,11,4.97,0.39,25,,3.584,0.058,5,5.567,,2,4.966,0.395,20,4.83715,0.302473741,6.5,,mg_red,nan,nan,nan,nan,nan,
IODP U1443,2929,1500,,,,deepMIP,MgCa,Barnet et al. 2020,https://doi.org/10.1016/j.epsl.2020.116414,75,-28.15,mgca_morozovella:barker,90.36183,5.38349,82.75,-28.15,74.85,-26.15,82.75,-28.15,4.02,0.04,3,4.81,0.002,2,,4.023,0.035,3,4.806,,1,4.805,0.002,2,4.552232775,,1,,mg_red,,,,,,note this should be mg_red - I changed it
Bass River,,,,,,deepMIP,TEX86,"Sluijs et al., 2007",https://doi.org/10.1038/nature06400,-57.78841,39.6,tex86,-74.43,39.6,-46.05,34.95,-55.55,38.45,-55.55,38.45,0.748,0.019,15,0.889,0.019,18,,0.762,0.034,15,0.92,,1,0.891,0.017,17,0.7975,0.054967523,8,,,nan,nan,nan,nan,nan,
Bass River,,115,,,,deepMIP,MgCa,"Babila et al., 2016",https://doi.org/10.1130/G37522.1,-57.78841,39.6,mgca_acarinina:reductive,-74.43,39.6,-46.05,34.95,-55.55,38.45,-55.55,38.45,2.65,0.27,5,3.35,0.25,12,,2.648,0.268,5,3.31,0.014,2,3.232,0.101,5,2.93,0.127279221,2,,mg_red,,,,,,
Bass River,,115,,,,deepMIP,MgCa,"Babila et al., 2016",https://doi.org/10.1130/G37522.1,-57.78841,39.6,mgca_morozovella:reductive,-74.43,39.6,-46.05,34.95,-55.55,38.45,-55.55,38.45,,,,3.91,0.44,9,,,,,4.495,0.346,2,3.973,0.47,7,3.69,0.195064092,5,,mg_red,,,,,,
Bass River,,,,,,deepMIP,d18O,"John et al., 2008",https://doi.org/10.1029/2007PA001465,-57.78841,39.6,d18o_acarinina,-74.43,39.6,-46.05,34.95,-55.55,38.45,-55.55,38.45,-2.33,0.42,28,-3.11,42,29,,-2.5,0.226,12,-3.535,0.159,5,-3.136,0.279,45,-2.8812525,0.306809767,9,glassy,,-0.48343,-0.4707,-0.5658,-0.422,-0.794,
Bass River,,,,,,deepMIP,d18O,"John et al., 2008",https://doi.org/10.1029/2007PA001465,-57.78841,39.6,d18o_morozovella,-74.43,39.6,-46.05,34.95,-55.55,38.45,-55.55,38.45,-2.81,0.55,20,-3.75,0.35,26,,-3.925,0.564,14,-3.88,0.061,5,-3.598,0.383,58,-3.385964293,0.518646804,18,glassy,,-0.48343,-0.4707,-0.5658,-0.422,-0.794,
Fur Section,,,,,,deepMIP,TEX86,"Schoon et al., 2015",https://doi.org/10.1016/j.orggeochem.2014.11.003,-31,52.65,tex86,8.9914,56.8411,9.75,46.35,-35,52.65,-35,52.65,0.49,0.014,2,0.738,0.034,5,,0.53,0.07,3,0.77,,1,0.738,0.034,5,0.56,0.04243,2,,,nan,nan,nan,nan,nan,
Fur Section,,,,,,deepMIP,TEX86,"Stokke et al., 2020",https://doi.org/10.1016/j.epsl.2020.116388,-31,52.65,tex86,8.9914,56.8411,9.75,46.35,-35,52.65,-35,52.65,0.584,0.054,12,0.674,0.09,21,,0.613,0.01,7,0.744,0.023,9,0.732,0.034,11,0.634295049,0.084993666,6,,,,nan,nan,nan,nan,
Store Baelt Section,,,,,,deepMIP,TEX86,"Schoon et al., 2015",https://doi.org/10.1016/j.orggeochem.2014.11.003,-29,51,tex86,11.08,55.35,11.65,44.55,25,50.8,11.65,44.55,0.531,0.078,7,0.669,0.045,4,,0.531,0.078,7,0.735,,1,0.638,0.045,8,0.4803,0,1,,,nan,nan,nan,nan,nan,
Harrell Core,,,,,,deepMIP,TEX86,"Sluijs et al., 2014",https://doi.org/10.5194/cp-10-1421-2014,-73,33.7,tex86,-88.72055556,32.25111111,-62.75,31.15,-82,32.85,-71,31.15,0.738,0.011,3,0.888,0.019,15,,0.726,0.032,10,0.889,,1,0.881,0.032,16,0.70864,0,1,,,nan,nan,nan,nan,nan,
Nigeria IB10A,,,,,,deepMIP,TEX86,"Frieling et al., 2017",https://doi.org/10.1126/sciadv.160089,-11,-0.35,tex86,2.8,6.8,3,-6.95,-10.1,-0.35,-10.1,-0.35,0.826,0.025,11,0.935,0.021,2,,0.834,0.027,11,0.95,,1,0.935,0.02,2,0.802332687,0.038113715,6,,,nan,nan,nan,nan,nan,
Nigeria IB10B,,,,,,deepMIP,TEX86,"Frieling et al., 2017",https://doi.org/10.1126/sciadv.160089,-11,-0.35,tex86,2.8,6.8,3,-6.95,-10.1,-0.35,-10.1,-0.35,0.837,0.025,19,0.922,0.023,5,,0.838,0.027,18,0.95,,1,0.921,0.022,5,0.83692,0.019610905,13,,,nan,nan,nan,nan,nan,
Lodo Gulch,,,,,,deepMIP,d18O,"John et al., 2008",https://doi.org/10.1029/2007PA001465,-111,44.05,d18o_acarinina,-120.63,36.58,-92.55,44.05,-110.01,42.25,-110.01,44.05,,,,-3,0.17,12,,nan,nan,0,-3.28,,1,-2.926,0.209,18,-2.43,0.112842073,4,glassy,,-0.5982,-1.8707,-0.7032,-2.1821,-2.4597,
Lodo Gulch,,,,,,deepMIP,d18O,"John et al., 2008",https://doi.org/10.1029/2007PA001465,-111,44.05,d18o_morozovella,-120.63,36.58,-92.55,44.05,-110.01,42.25,-110.01,44.05,,,,-2.97,0.16,21,,nan,nan,0,-3.115,,2,-3.014,0.136,33,-2.718333334,0.228297776,6,glassy,,-0.5982,-1.8707,-0.7032,-2.1821,-2.4597,
IODP364-M0077A,-19.8,,,,,deepMIP,TEX86,Smith et al. 2020,https://doi.org/10.5194/cp-16-1889-2020,-81,20.85,tex86,-89.949367,21.45015,-67.25,20.85,-75.05,22.15,-67.25,20.85,0.856,,1,0.973,0.008,5,,0.856,,1,0.981,,2,0.967,0.011,7,,,,,,,,,,,
Milville,,59,,,,deepMIP,d18O,Si et al. 2018,https://doi.org/10.1002/2017PA003219,-58.35841,39.4,d18o_acarinina,-75,39.4,-47.25,34.25,-56.75,37.65,-56,38.25,-2.43,0.28,8,-3.3,0.24,30,,-2.346,0.526,2,-3.54,0.047,2,-3.368,0.217,7,-2.98807913,0.337833103,46,glassy,-0.477467,-0.48343,-0.4707,-0.5658,-0.422,-0.794,
Milville,,59,,,,deepMIP,d18O,Si et al. 2018,https://doi.org/10.1002/2017PA003219,-58.35841,39.4,d18o_morozovella,-75,39.4,-47.25,34.25,-56.75,37.65,-56,38.25,-2.97,0.24,4,-3.82,0.41,26,,-3.157,0.25,2,-3.955,,1,-3.903,0.547,5,-3.447936667,0.50222532,45,glassy,-0.477467,-0.48343,-0.4707,-0.5658,-0.422,-0.794,
Nigeria SQ,,,,,,deepMIP,d18O,"Frieling et al., 2017",https://doi.org/10.1126/sciadv.160089,-10.1,-0.346,d18o_morozovella,3.583333333,6.833333333,3.95,-7.15,-10.1,-0.45,-0.1,-9.6,-3.77,0.12,12,,,,,-3.774,0.124,12,,,,nan,nan,0,nan,nan,0,glassy,,-0.29589,-0.8146,-0.3713,-0.1102,-0.1003,
Nigeria SQ,,,,,,deepMIP,d18O,"Frieling et al., 2017",https://doi.org/10.1126/sciadv.160089,-10.1,-0.346,d18o_acarinina,3.583333333,6.833333333,3.95,-7.15,-10.1,-0.45,-0.1,-9.6,-3.4,0.23,12,,,,,-3.397,0.233,12,,,,nan,nan,0,nan,nan,0,glassy,,-0.29589,-0.8146,-0.3713,-0.1102,-0.1003,
Nigeria SQ,,200,,,,deepMIP,MgCa,"Frieling et al., 2017",https://doi.org/10.1126/sciadv.160089,-10.1,-0.346,mgca_morozovella:reductive,3.583333333,6.833333333,3.95,-7.15,-10.1,-0.45,-0.1,-9.6,4.65,0.36,10,,,,,4.646,0.364,10,,,,nan,nan,0,nan,nan,0,,mg_red,nan,nan,nan,nan,nan,
Nigeria SQ,,200,,,,deepMIP,MgCa,"Frieling et al., 2017",https://doi.org/10.1126/sciadv.160089,-10.1,-0.346,mgca_acarinina:reductive,3.583333333,6.833333333,3.95,-7.15,-10.1,-0.45,-0.1,-9.6,4.2,0.21,10,,,,,4.205,0.509,10,,,,nan,nan,0,nan,nan,0,,mg_red,nan,nan,nan,nan,nan,
Nigeria SQ,,,,,,deepMIP,TEX86,"Frieling et al., 2017",https://doi.org/10.1126/sciadv.160089,-10.1,-0.346,tex86,3.583333333,6.833333333,3.95,-7.15,-10.1,-0.45,-0.1,-9.6,0.844,0.018,7,,,,,0.844,0.018,7,,,,nan,nan,0,nan,nan,0,,,nan,nan,nan,nan,nan,
Tanzania TDP14,,,,,,deepMIP,d18O,"Aze et al., 2014",https://doi.org/10.1130/G35637.1,29,-16,d18o_morozovella,39.5,-9.27,39.75,-24.65,23.2,-24.65,35,-16,-3.36,0.26,9,-3.8,0.52,20,,-3.437,0.387,28,-3.75,,1,-3.677,0.064,3,-4.03375,0.435822293,8,glassy,,-0.05308,-0.8733,-0.5492,-0.6582,-0.9457,
Tanzania TDP14,,,,,,deepMIP,d18O,"Aze et al., 2014",https://doi.org/10.1130/G35637.1,29,-16,d18o_a.soldadoensis,39.5,-9.27,39.75,-24.65,23.2,-24.65,35,-16,-3.28,0.39,5,-3.62,0.33,10,,-3.132,0.466,13,-4.087,,1,-4.14,0,1,-3.76,0.272396769,5,glassy,,-0.05308,-0.8733,-0.5492,-0.6582,-0.9457,
Tumey Gulch,,,,,,deepMIP,d18O,"John et al., 2008",https://doi.org/10.1029/2007PA001465,-111,42.25,d18o_acarinina,-120.63,36.53,-92.55,44.05,-110.01,42.25,-110.01,42.25,-3.19,0.16,2,,,,,nan,nan,0,-3.3,,1,-2.843,0.433,4,-2.48,0,1,glassy,,-0.5982,-1.772,-0.6232,-2.0247,-2.2973,
Tumey Gulch,,,,,,deepMIP,d18O,"John et al., 2008",https://doi.org/10.1029/2007PA001465,-111,42.25,d18o_morozovella,-120.63,36.53,-92.55,44.05,-110.01,42.25,-110.01,42.25,-3.23,0.14,4,,,,,nan,nan,0,-3.265,,2,-3.112,0.188,7,-2.375,0.6293,2,glassy,,-0.5982,-1.772,-0.6232,-2.0247,-2.2973,
mid-Waipara,,,,,,deepMIP,TEX86,"Hollis et al., 2012",https://doi.org/10.1016/j.epsl.2012.06.024,-161,-48.75,tex86,172.75,-43.06666667,-157.15,-48.75,179.15,-54.85,-161,-48.75,,,,0.836,0.03,2,,nan,nan,0,0.857,,1,0.836,0.03,2,nan,nan,0,,,nan,nan,nan,nan,nan,
Siberia Well 10,,,,,,deepMIP,TEX86,"Frieling et al., 2014",https://doi.org/10.1130/G35724.1,49.99,51.25,tex86,73.52654722,53.50176944,64.55,51.25,45,55.25,49.99,51.25,0.505,0.025,8,0.682,0.015,3,,nan,nan,0,0.7,,1,0.67,0.036,4,nan,nan,0,,,nan,nan,nan,nan,nan,
Wilson Lake,,,,,,deepMIP,d18O,"Zachos et al., 2006",https://doi.org/10.1130/G22522.1,-58.40841,39.65,d18o_morozovella,-75.05,39.65,-46.95,35.25,-56.45,38.65,-51,35.25,,,,-3.77,0.26,14,,nan,nan,0,-4.347,,2,-3.762,0.336,42,nan,nan,0,glassy,,-0.48941,-0.4295,-0.5346,-0.4007,-0.6612,
Wilson Lake,,,,,,deepMIP,d18O,"Zachos et al., 2006",https://doi.org/10.1130/G22522.1,-58.40841,39.65,d18o_acarinina,-75.05,39.65,-46.95,35.25,-56.45,38.65,-51,35.25,,,,-3.46,0.29,17,,nan,nan,0,-3.838,,2,-3.085,0.421,57,-2.4175,0.221415898,4,glassy,,-0.48941,-0.4295,-0.5346,-0.4007,-0.6612,
Wilson Lake,,,,,,deepMIP,TEX86,"Zachos et al., 2006",https://doi.org/10.1130/G22522.1,-58.40841,39.65,tex86,-75.05,39.65,-46.95,35.25,-56.45,38.65,-51,35.25,0.7,0.015,24,0.89,0.023,17,,0.698,0.013,5,0.933,,1,0.891,0.023,16,0.77,0.07257,4,,,nan,,,,,
Ancora,,125,,,,deepMIP,TEX86,"Elling et al., 2019",https://doi.org/10.1038/s41467-019-12553-3,-58.20742639,39.69221528,tex86,-74.84901639,39.69221528,-46.95,35.25,-56.45,38.65,-51,35.25,0.728,0.022,14,0.909,0.02,19,,0.738,0.019,12,0.928,0.021,19,0.928,0.021,19,0.757142857,0.027516229,7,,,nan,nan,nan,nan,nan,
Ancora,,,,,,deepMIP,d18O,"Babila et al., 2014",https://doi.org/10.7282/T3Z31WRT,-58.20742639,39.69221528,d18o_morozovella,-74.84901639,39.69221528,-46.95,35.25,-56.45,38.65,-51,35.25,,,,-3.86,0.2,10,,,,,-3.857,0.2,10,-3.857,0.2,10,,,,glassy,-0.477467,-0.48343,-0.4707,-0.5658,-0.422,-0.794,
Ancora,,,,,,deepMIP,d18O,"Babila et al., 2014",https://doi.org/10.7282/T3Z31WRT,-58.20742639,39.69221528,d18o_acarinina,-74.84901639,39.69221528,-46.95,35.25,-56.45,38.65,-51,35.25,,,,-3.33,0.19,26,,,,,-3.308,0.215,27,-3.308,0.215,27,,,,glassy,-0.477467,-0.48343,-0.4707,-0.5658,-0.422,-0.794,
Ancora,,125,,,,deepMIP,MgCa,"Babila et al., 2014",https://doi.org/10.7282/T3Z31WRT,-58.20742639,39.69221528,mgca_morozovella:reductive,-74.84901639,39.69221528,-46.95,35.25,-56.45,38.65,-51,35.25,,,,4.29,0.73,19,,,,,4.363,0.815,23,4.363,0.815,23,,,,glassy,mg_red,,,,,,
Ancora,,125,,,,deepMIP,MgCa,"Babila et al., 2014",https://doi.org/10.7282/T3Z31WRT,-58.20742639,39.69221528,mgca_acarinina:reductive,-74.84901639,39.69221528,-46.95,35.25,-56.45,38.65,-51,35.25,,,,3.4,0.44,24,,,,,3.415,0.442,25,3.415,0.442,25,,,,glassy,mg_red,,,,,,
ZS,,,,,Tibet,this study,TEX86,"Jin et al., 2023",https://doi.org/10.1016/j.gloplacha.2023.104289 ,69,0.1,tex86,88.52,28.28,,,76.85,-1.45,,,0.72744097,0.016530352,3,0.804294715,,1,,,,,,,,,,,,,,,,,,,,,
DSDP 164,5220,5220,"Van Andel, 1975",https://doi.org/10.1016/0012-821X(75)90086-2,Pacific,"Panchunk et al., 2008",caco3,"Van Andel, 1975",https://doi.org/10.1016/0012-821X(75)90086-2,-131.55,3.2,caco3,-161.517,13.2017,-121.55,3.25,-127.1,-1,-131.55,3.25,0,,,0,,,,0,,,0,,,0,,,0,,,,,,,,,,
DSDP 166,4880,4880,"Van Andel, 1975",https://doi.org/10.1016/0012-821X(75)90086-2,Pacific,"Panchunk et al., 2008",caco3,"Van Andel, 1975",https://doi.org/10.1016/0012-821X(75)90086-2,-145.35,-4.25,caco3,-175.08,3.7617,-135.35,-4.25,-140.35,-9.45,-145.35,-4.25,0,,,0,,,,0,,,0,,,0,,,0,,,,,,,,,,
DSDP 168,5000,5000,"Van Andel, 1975",https://doi.org/10.1016/0012-821X(75)90086-2,Pacific,"Panchunk et al., 2008",caco3,"Van Andel, 1975",https://doi.org/10.1016/0012-821X(75)90086-2,-155.15,3,caco3,173.598,10.7033,-145.15,4.25,-150.65,-1.55,-155.15,4.25,0,,,0,,,,0,,,0,,,0,,,0,,,,,,,,,,
DSDP 169,5000,5000,"Van Andel, 1975",https://doi.org/10.1016/0012-821X(75)90086-2,Pacific,"Panchunk et al., 2008",caco3,"Van Andel, 1975",https://doi.org/10.1016/0012-821X(75)90086-2,-155.15,3,caco3,173.598,10.7033,-145.15,4.25,-150.65,-1.55,-155.15,4.25,0,,,0,,,,0,,,0,,,0,,,0,,,,,,,,,,
DSDP 170,5250,5250,"Van Andel, 1975",https://doi.org/10.1016/0012-821X(75)90086-2,Pacific,"Panchunk et al., 2008",caco3,"Van Andel, 1975",https://doi.org/10.1016/0012-821X(75)90086-2,-151.15,3.1,caco3,177.617,11.8,-141.15,4.65,-146.65,-0.95,-151.15,4.65,0,,,0,,,,0,,,0,,,0,,,0,,,,,,,,,,
DSDP 212,6050,6050,"Van Andel, 1975",https://doi.org/10.1016/0012-821X(75)90086-2,Indian,"Panchunk et al., 2008",caco3,"Van Andel, 1975",https://doi.org/10.1016/0012-821X(75)90086-2,73.05,-42,caco3,99.2973,-19.189,93.05,-41.05,82.35,-39.85,83.05,-41.05,0,,,0,,,,0,,,0,,,0,,,0,,,,,,,,,,
DSDP 213,3250,3250,Slotnick et al. 2015,https://doi.org/10.5194/cp-11-473-2015,Indian,"Bralower et al., 2018",caco3,Slotnick et al. 2015,https://doi.org/10.5194/cp-11-473-2015,71,-33.0228,caco3,93.8962,-10.2118,,,,,,,,,,0,,,,,,,,,,,,,,,,,,,,,,,
DSDP 277,800-1000,900,"Hines et al., 2017",https://doi.org/10.1016/j.palaeo.2017.02.037,Pacific,this study,caco3,"Hollis et al., 2015",https://doi.org/10.5194/cp-11-1009-2015,-168.55,-56.15,caco3,166.1913333,-52.22383333,-168.55,-56.15,-173.95,-62.45,-168.55,-56.15,74,2.5,21,62.74,10.26,15,,74,2.5,21,62.74,10.26,15,62.74,10.26,15,80.53,3.59,12,,,,,,,,
DSDP 248,4170,4170,"Van Andel, 1975",https://doi.org/10.1016/0012-821X(75)90086-2,Southern,"Panchunk et al., 2008",caco3,"Van Andel, 1975",https://doi.org/10.1016/0012-821X(75)90086-2,28.45,-46.5,caco3,37.4747,-29.5297,38.45,-45.65,30.55,-39.6,28.45,-45.65,0,,,0,,,,0,,,0,,,0,,,0,,,,,,,,,,
DSDP 250,5080,5080,"Van Andel, 1975",https://doi.org/10.1016/0012-821X(75)90086-2,Southern,"Panchunk et al., 2008",caco3,"Van Andel, 1975",https://doi.org/10.1016/0012-821X(75)90086-2,29,-51.3,caco3,39.3692,-33.4623,41.15,-48.35,32.75,-42.65,31.15,-48.35,0,,,0,,,,0,,,0,,,0,,,0,,,,,,,,,,
DSDP 256,5000,5000,"Van Andel, 1975",https://doi.org/10.1016/0012-821X(75)90086-2,Indian,"Panchunk et al., 2008",caco3,"Van Andel, 1975",https://doi.org/10.1016/0012-821X(75)90086-2,75.05,-45.25,caco3,100.774,-23.4558,95.05,-45.25,83.45,-44.15,85.05,-45.25,0,,,0,,,,0,,,0,,,0,,,0,,,,,,,,,,
DSDP 259,4000,4000,"Hancock et al., 2006",https://doi.org/10.1007/s00531-006-0144-0,Indian,"Panchunk et al., 2008",caco3,"Hancock et al., 2006",https://doi.org/10.1007/s00531-006-0144-0,85,-51,caco3,112.6963333,-29.6175,111.05,-52.55,97.35,-53.15,85,-52.55,61,,,37,,,,61.3,,1,37.9,,1,37.94,,1,70.72,,1,,,,,,,,
DSDP 260,5080,5080,"Van Andel, 1975",https://doi.org/10.1016/0012-821X(75)90086-2,Indian,"Panchunk et al., 2008",caco3,"Van Andel, 1975",https://doi.org/10.1016/0012-821X(75)90086-2,86.9,-37.5,caco3,110.299,-16.1445,106.9,-38.7,96.35,-38.95,96.9,-38.7,0,,,0,,,,0,,,0,,,0,,,0,,,,,,,,,,
DSDP 261,5400,5400,"Van Andel, 1975",https://doi.org/10.1016/0012-821X(75)90086-2,Indian,"Panchunk et al., 2008",caco3,"Van Andel, 1975",https://doi.org/10.1016/0012-821X(75)90086-2,96.45,-33.5,caco3,117.893,-12.9472,116.45,-35.45,106.55,-36.75,106.45,-35.45,0,,,0,,,,0,,,0,,,0,,,0,,,,,,,,,,
DSDP 303,5540,5540,"Van Andel, 1975",https://doi.org/10.1016/0012-821X(75)90086-2,Pacific,"Panchunk et al., 2008",caco3,"Van Andel, 1975",https://doi.org/10.1016/0012-821X(75)90086-2,-168.05,36.95,caco3,154.451,40.8083,-158.05,36.95,-164.1,30.85,-168.05,36.95,0,,,0,,,,0,,,0,,,0,,,0,,,,,,,,,,
DSDP 304,5600,5600,"Van Andel, 1975",https://doi.org/10.1016/0012-821X(75)90086-2,Pacific,"Panchunk et al., 2008",caco3,"Van Andel, 1975",https://doi.org/10.1016/0012-821X(75)90086-2,-167.65,34.85,caco3,155.07,39.3378,-157.65,34.85,-163.75,28.75,-167.65,34.85,0,,,0,,,,0,,,0,,,0,,,0,,,,,,,,,,
DSDP 307,5520,5520,"Van Andel, 1975",https://doi.org/10.1016/0012-821X(75)90086-2,Pacific,"Panchunk et al., 2008",caco3,"Van Andel, 1975",https://doi.org/10.1016/0012-821X(75)90086-2,-164.45,24.05,caco3,161.005,28.5877,-154.45,24.05,-160.35,17.95,-164.45,24.05,0,,,0,,,,0,,,0,,,0,,,0,,,,,,,,,,
DSDP 315,4120,4120,"Van Andel, 1975",https://doi.org/10.1016/0012-821X(75)90086-2,Pacific,"Panchunk et al., 2008",caco3,"Van Andel, 1975",https://doi.org/10.1016/0012-821X(75)90086-2,-141,-6.4,caco3,-158.526,4.171,-119.45,-5.95,-124.15,-10,-129.45,-5.95,0,,,0,,,,0,,,0,,,0,,,0,,,,,,,,,,
DSDP 316,4020,4020,"Van Andel, 1975",https://doi.org/10.1016/0012-821X(75)90086-2,Pacific,"Panchunk et al., 2008",caco3,"Van Andel, 1975",https://doi.org/10.1016/0012-821X(75)90086-2,-137.75,-10.05,caco3,-157.128,0.0907,-117.75,-10.05,-122.1,-14,-127.75,-10.05,0,,,0,,,,0,,,0,,,0,,,0,,,,,,,,,,
DSDP 401,1800,1800,"Pak & Miller, 1992",https://doi.org/10.1029/92PA01234,NorthAtlantic,this study,caco3,"Bornemann et al., 2014",https://doi.org/10.1016/j.epsl.2014.03.017,-10.95,41.8,caco3,-8.810333333,47.4275,-4.25,35.55,-10.95,41.8,-10.95,41.8,71.9,2.2,3,49.175,8.169,11,,71.9,2.2,3,49.175,8.169,11,49.175,8.169,11,38.62177287,4.04228428,15,,,,,,,,
DSDP 527,3400,3400,"Thomas & Shackleton, 1996",https://doi.org/10.1144/gsl.sp.1996.101.01.20,SouthAtlantic,this study,caco3,"Thomas et al., 1999",https://doi.org/10.1029/1999PA900031,-17.75,-34.95,caco3,1.76,-28.04,-3.8,-41.45,-7.75,-34.95,-17.75,-34.95,83,2.9,6,1.6,1.2,6,,83,2.9,6,1.6,1.2,6,30.318,29.311,13,85.39,4.561089051,7,,,,,,,,
DSDP 549,1500,1500,"Winguth et al., 2012",https://doi.org/10.1130/G32529.1,NorthAtlantic,"Panchunk et al., 2008",caco3,"Thomas & Bralower, 2005",https://doi.org/10.1016/j.margeo.2005.02.009,-20.01,41.8,caco3,-13.1,49.09,-7.75,37.95,-14.75,43.75,-20.01,43.75,51,,,1,,,,55.3,2.6,4,0.7,0.1,5,0.682,0.116,5,45.05928571,2.944432724,14,,,,,,,,
DSDP 577,2200,2200,"Takeda & Kaiho, 2007",https://doi.org/10.1016/j.palaeo.2007.02.026,Pacific,"Panchunk et al., 2008",caco3,"Bralower et al., 2002, Quillévéré et al., 2002",https://doi.org/10.1029/2001PA000662; https://doi.org/10.1016/S0031-0182(02)00275-4,-156.55,27.45,caco3,157.72,32.44,-156.55,27.45,-162.55,21.35,-156.55,27.45,96,,,,,,,96,,,,,,,,,,,,,,,,,,,
ODP 738,1350,1350,"Barrera & Huber, 1991",http://doi.org/10.2973/odp.proc.sr.119.167.1991,Indian,"Panchunk et al., 2008",caco3,"Barron et al., 1989",https://doi.org/10.2973/odp.proc.ir.119.1989,79.4,-62.2,caco3,82.79,-62.71,97.05,-63.55,79.4,-62.2,79.4,-62.2,90,,,70,,,,89.5,,1,69.6,,1,69.6,,1,88.8,,1,,,,,,,,
ODP 766,3476,3476,"Ludden et al., 1990",http://doi.org/10.2973/odp.proc.ir.123.105.1990,Indian,"Panchunk et al., 2008",caco3,"Ludden et al., 1990",https://doi.org/10.2973/odp.proc.ir.123.105.1990,89,-42.7,caco3,110.4541,-19.932,106.85,-42.7,95.55,-42.85,89,-42.7,93,,,,,,,93,,,,,,,,,,,,,,,,,,,
ODP 689,1100,1100,"Thomas & Shackleton, 1996",https://doi.org/10.1144/gsl.sp.1996.101.01.20,Southern,"Panchunk et al., 2008",caco3,"Shipboard Scientific Party, 1988",http://dx.doi.org/10.2973/odp.proc.ir.113.106.1988,-5.85,-70.8,caco3,3.1,-64.52,4.15,-71.45,0.65,-65,4.15,-70,91,1.9,4,,,,,91.2,1.9,4,81.7,,1,81.7,,1,88.56666667,3.082747692,3,,,,,,,,
ODP 690,1900,1900,"Thomas & Shackleton, 1996",https://doi.org/10.1144/gsl.sp.1996.101.01.20,Southern,"Panchunk et al., 2008",caco3,"Thomas et al., 1999",http://dx.doi.org/10.1029/1999PA900031,-8.55,-70.75,caco3,1.2,-65.16,1.45,-71.4,-1.35,-65.05,-5,-65.05,84,,,60,,,,82.8,1.6,2,59.6,,1,66.01,3.098,8,73.92,2.086671991,4,,,,,,,,
ODP 865,1500,1500,"Bralower et al., 1995",http://doi.org/10.1029/95PA01143,Pacific,"Panchunk et al., 2008",caco3,"Shipboard Scientific Party, 1995; Thomas et al., 1999",http://dx.doi.org/10.2973/odp.proc.ir.143.106.1993; http://dx.doi.org/10.1029/1999PA900031,-138.05,10.35,caco3,-179.55,18.43,-138.05,10.35,-143.85,4.85,-138.05,10.35,96,,,93,,,,95.8,,,92.5,,,92.5,,,95.9,,,,,,,,,,
ODP 959,1000,1000,"Frieling et al., 2018",http://doi.org/10.5194/cp-14-39-2018,SouthAtlanticMargin,this study,caco3,"Frieling et al., 2018",http://dx.doi.org/10.5194/cp-14-39-2018,-15.63583,-3.5225,caco3,-2.73583,3.6275,-3.4,-9.15,-8.55,-2.65,-3.4,-10,5.1,7.4,63,0.5,0.4,11,,5.1,7.4,63,0.5,0.4,11,1.215,1.613,111,13.50266625,3.567807208,16,,,,,,,,
ODP 999,1750,1750,"Thomas et al., 1999",http://dx.doi.org/10.1029/1999PA900031,Caribbean,"Panchunk et al., 2008",caco3,"Bralower et al., 1997",http://dx.doi.org/10.1130/0091-7613(1997)025<0963:HRROTL>2.3.CO;2,-87.45,9.6,caco3,-78.73,12.75,-71.65,2.85,-77.45,3.75,-77.45,3.75,61,,,0,,,,55.3,8.1,2,0.3,0,6,0.255,0.05,6,59.435,12.52872566,4,,,,,,,,
ODP 1001,1500,1500,"Thomas et al., 1999",http://dx.doi.org/10.1029/1999PA900031,Caribbean,"Panchunk et al., 2008",caco3,"Bralower et al., 1997",http://dx.doi.org/10.1130/0091-7613(1997)025<0963:HRROTL>2.3.CO;2,-69.15,12.9,caco3,-74.92,15.75,-59.15,12.25,-66.8,14.55,-59.15,12.25,45,,,0,,,,65.2,13.9,13,2.6,2.6,3,2.637,2.64,3,67.21833333,17.26551046,12,,,,,,,,
ODP 1050,1800-2800,2300,"Norris et al., 1998; Rudnicki et al., 2001",http://dx.doi.org/10.2973/odp.proc.ir.171b.105.1998; http://dx.doi.org/10.1029/2000pa000551,NorthAtlantic,"Panchunk et al., 2008",caco3,"Rudnicki et al., 2001",http://dx.doi.org/10.1029/2000pa000551,-61.25,30.15,caco3,-76.235,30.09994,-51.25,25.95,-59.65,28.9,-51.25,25.95,63,,,57,,,,63,,,57,,,57,,,,,,,,,,,,,
ODP 1051,1500,1500,"Norris et al., 1998",http://dx.doi.org/10.2973/odp.proc.ir.171b.105.1998,NorthAtlantic,"Panchunk et al., 2008",caco3,"Rudnicki et al., 2001",http://dx.doi.org/10.1029/2000pa000551,-61.37,30.1,caco3,-76.36,30.05,-51.25,25.95,-59.65,28.9,-51.25,25.95,56,,,52,,,,56,,,52,,,52,,,,,,,,,,,,,
ODP 1135,1000-2000,1500,"Panchuk et al., 2008",http://dx.doi.org/10.1130/G24474A.1,Southern,"Panchunk et al., 2008",caco3,"Shipboard Scientific Party, 2000",http://doi.org/10.2973/odp.proc.ir.183.103.2000,76.55,-60.55,caco3,84.27353,-59.69991,96.55,-60.55,80.35,-59.15,96.55,-60.55,95,,,,,,,95,,,,,,,,,,,,,,,,,,,
ODP 1138,600-1200,900,"Quilty et al., 1992",https://doi.org/10.2973/odp.proc.sr.120.173.1992,Indian,"Panchunk et al., 2008",caco3,"Shipboard Scientific Party, 2000",http://doi.org/10.2973/odp.proc.ir.183.106.2000,66.15,-55.55,caco3,75.97488,-53.55175,86.15,-55.55,72.4,-53.3,72.4,-55.55,93,,,,,,,93,,,,,,,,,,,,,,,,,,,
ODP 1172,300,300,"Hollis et al., 2019",https://doi.org/10.5194/gmd-12-3149-2019,Southern,this study,caco3,"Sluijs et al., 2011",http://doi.org/10.5194/cp-7-47-2011,142,-64.45,caco3,150,-44,169.35,-58.75,159,-64.45,149,-64.45,0.1,0.1,99,0.1,0.1,42,,0.1,0.1,99,0.129,0.062,42,0.129,0.062,42,0.01982886,0.018325827,114,,,,,,,,
ODP 1209,1900,1900,"Dutton et al., 2005",https://doi.org/10.1029/2004PA001098,Pacific,"Panchunk et al., 2008",caco3,"Colosimo et al., 2006",http://doi.org/10.2973/odp.proc.sr.198.112.2006,-155.45,28.35,caco3,158.50594,32.65180167,-155.45,28.35,-161.45,22.2,-155.45,28.35,96,,,84,,,,95.7,1.2,8,84,,1,90.037,3.731,11,94.82714286,1.192027546,14,,,,,,,,
ODP 1210,2100,2100,"Takeda & Kaiho, 2007",https://doi.org/10.1016/j.palaeo.2007.02.026,Pacific,"Panchunk et al., 2008",caco3,"Colosimo et al., 2006",http://doi.org/10.2973/odp.proc.sr.198.112.2006,-155.69654,27.92169833,caco3,158.2594,32.2235,-156.55,27.45,-162.55,21.35,-156.55,27.45,92,,,86,,,,92.9,2,11,85.8,,1,88.129,1.712,11,89.86380952,1.894540779,21,,,,,,,,
ODP 1211,2400,2400,"Takeda & Kaiho, 2007",https://doi.org/10.1016/j.palaeo.2007.02.026,Pacific,"Panchunk et al., 2008",caco3,"Colosimo et al., 2006",http://doi.org/10.2973/odp.proc.sr.198.112.2006,-156.10594,27.70039833,caco3,157.85,32.0022,-156.55,27.45,-162.55,21.35,-156.55,27.45,95,,,78,,,,96.6,2.6,2,78.3,,1,78.75,8.548,3,95.73,2.922031257,4,,,,,,,,
ODP 1212,2200,2200,"Takeda & Kaiho, 2007",https://doi.org/10.1016/j.palaeo.2007.02.026,Pacific,"Panchunk et al., 2008",caco3,"Colosimo et al., 2006",http://doi.org/10.2973/odp.proc.sr.198.112.2006,-156.24424,28.14649833,caco3,157.7117,32.4483,-156.55,27.45,-162.55,21.35,-156.55,27.45,98,,,83,,,,96.2,1.3,4,83.3,,1,90.972,5.387,9,,,,,,,,,,,
ODP 1215,3200,3200,"Rea & Lyle, 2005",https://doi.org/10.1029/2004PA001064,Pacific,"Panchunk et al., 2008; this study",caco3,Leon-Rodriguez & Dickens 2010,https://doi.org/10.1016/j.palaeo.2010.10.029,-127.3,15.3,caco3,-147.9332,26.0296,-107.3,15.3,-114.05,12.25,-107.3,15.3,74,,,8.3,,,,70.2,10,11,8.3,1.3,2,17.304,8.721,5,82.76209083,2.256586691,6,,,,,,,,
ODP 1220,2900,2900,"Rea & Lyle, 2005",https://doi.org/10.1029/2004PA001064,Pacific,"Panchunk et al., 2008",caco3,"Shipboard Scientific Party, 2002",http://doi.org/10.2973/odp.proc.ir.199.113.2002,-123.2,-0.9,caco3,-142.7582,10.18,-103.2,-0.9,-108.35,-3.45,-103.2,-0.9,90,,,0,,,,76.2,15.4,2,0,,1,0,,25,79.106,15.30686063,10,,,,,,,,
ODP 1221,3200,3200,"Rea & Lyle, 2005",https://doi.org/10.1029/2004PA001064,Pacific,"Panchunk et al., 2008",caco3,"Murphy et al., 2006",http://doi.org/10.2973/odp.proc.ir.199.114.2002,-124.1318,1.15,caco3,-143.69,12.03,-104.1,1.15,-109.45,-1.55,-104.1,1.15,74,,,3,,,,45.4,16.4,34,2.7,1.4,13,2.724,1.441,13,82.46153846,7.457227678,52,,,,,,,,
ODP 1258,2500,2500,"Sexton et al., 2006",https://doi.org/10.1029/2005PA001253,Atlantic,"Bralower et al., 2018",caco3,"Bralower et al., 2018",https://doi.org/10.1029/2018PA003382,-46.44332333,0.413338333,caco3,-54.73332333,9.433338333,,,,,,,33.58,0,1,0.72,0,1,,,,,,,,,,,,,,,,,,,,,
ODP 1260,1300,1900,"Bralower et al., 2018",https://doi.org/10.1029/2018PA003382,Atlantic,this study,caco3,"Mutterlose et al., 2007",https://doi.org/10.1016/j.marmicro.2007.05.004,-46.25,0.25,caco3,-54.54,9.27,-36.25,0.25,-41.8,4.85,-36.25,0.25,57.1,4.8,12,1,,2,,57.1,4.8,12,1,,2,1,,2,63.15,3.473230965,4,,,,,,,,
ODP 1262,3600,3600,"Zachos et al., 2005",https://doi.org/10.1126/science.1109004,Walvis,this study,caco3,"Zachos et al., 2005",https://doi.org/10.1126/science.1109004,-17.933,-34.095833,caco3,1.577,-27.185833,-3.55,-40.5,-7.55,-34,-11,-37,88,1.8,7,0.7,0.1,9,,88.5,1.8,7,0.7,0.1,9,0.689,0.145,9,92.23571429,1.388749932,14,,,,,,,,
ODP 1263,1500,1500,"Zachos et al., 2005",https://doi.org/10.1126/science.1109004,Walvis,"Panchunk et al., 2008",caco3,"Zachos et al., 2005",https://doi.org/10.1126/science.1109004,-16.7305,-35.443,caco3,2.7795,-28.533,-2.85,-42.65,-6.85,-36.15,-12,-38,88,,,1,,,,87,1.9,10,1.3,,1,2.7,1.453,3,90.125,0.320156212,4,,,,,,,,
ODP 1265,1850,1850,"Zachos et al., 2005",https://doi.org/10.1126/science.1109004,Walvis,this study,caco3,"Zachos et al., 2005",https://doi.org/10.1126/science.1109004,-16.87,-35.75,caco3,2.64,-28.84,-2.85,-42.65,-6.85,-36.15,-13,-38.5,89,3.4,16,32.3,3.3,2,,89,3.4,16,32.3,3.3,2,56.181,13.965,16,89.4,2.535087112,7,,,,,,,,
ODP 1266,2600,2600,"Zachos et al., 2005",https://doi.org/10.1126/science.1109004,Walvis,this study,caco3,"Zachos et al., 2005",https://doi.org/10.1126/science.1109004,-17.17,-35.45,caco3,2.34,-28.54,-4.05,-42.45,-7.95,-35.95,-10.5,-38.1,82.8,1.8,9,0.6,0.3,4,,82.8,1.8,9,0.6,0.3,4,0.6,0.271,4,90.24242424,2.664351504,33,,,,,,,,
ODP 1267,3200,3200,"Panchuk et al., 2008",http://dx.doi.org/10.1130/G24474A.1,Walvis,this study,caco3,"Zachos et al., 2005",https://doi.org/10.1126/science.1109004,-17.8,-35.01,caco3,1.71,-28.1,-3.8,-41.45,-7.75,-34.95,-3.8,-37.7,83.2,3.2,9,1.3,0.4,4,,83.2,3.2,9,1.3,0.4,4,1.335,0.388,4,89.49,1.499233137,3,,,,,,,,
IODP U1403,4374,4374,"Penman et al., 2016",https://doi.org/10.1038/ngeo2757,NorthAtlantic,this study,caco3,"Penman et al., 2016",https://doi.org/10.1038/ngeo2757,-41,37.5,caco3,-51.80333,39.943328,-26.85,30.25,-34.75,35.45,-26.85,30.25,0.4,0.1,15,0.3,0.1,5,,0.4,0.1,15,0.3,0.1,5,0.336,0.096,5,18.515,1.718269478,2,,,,,,,,
IODP U1409,2913,2913,"Penman et al., 2016",https://doi.org/10.1038/ngeo2757,NorthAtlantic,this study,caco3,"Penman et al., 2016",https://doi.org/10.1038/ngeo2757,-39,38,caco3,-49.233087,41.295737,-23.95,30.75,-31.85,36.1,-23.95,30.75,54.4,4.9,43,43.115,1.011162697,2,,54.4,4.9,43,55.663,4.733,4,55.663,4.733,4,70.91017241,2.538522496,58,,,,,,,,
Alamedilla,1000-2000,1500,"Lu et al., 1996",https://doi.org/10.1111/j.1365-3121.1996.tb00567.x,Tethyan ,this study,caco3,"Lu et al., 1996",http://doi.org/10.1111/j.1365-3121.1996.tb00567.x,-11.55,32.7,caco3,-2.766666667,37.58333333,1.45,26.05,-4.75,32.25,-8.55,26.05,73.52,5.45344976,8,24.002,13.88556157,5,,,,,,,,,,,,,,,,,,,,,
Tanzania TDP14,300-500,400,"Nicholas et al., 2006",https://doi.org/10.1016/j.jafrearsci.2006.04.003,Indian,this study,caco3,"Aze et al., 2014",http://doi.org/10.1130/G35637.1,29,-16,caco3,39.5,-9.27,39.75,-24.65,33.2,-18.65,29,-16,6.7,5.3,26,1.147,2.033,17,,6.7,5.3,26,1.147,2.033,17,1.147,2.033,17,16.18818182,16.84427845,11,,,,,,,,
Dababiya,150-175,162.5,Dupuis et al. 2003,http://doi.org/10.2113/49.Suppl_1.41,Tethyan ,this study,caco3,"Khozyem et al., 2015",https://doi.org/10.1016/j.palaeo.2015.04.003,22.85,23,caco3,32.52,25.5,32.85,10.2,28.05,16.5,22.85,10.2,43.39354264,6.314783501,26,1.318800889,1.520369728,10,,,,,,,,,,,,,,,,,,,,,
Gebel Qreiya,200-300,250,"Speijer & Wagner, 2002",https://doi.org/10.1130/0-8137-2356-6.533,Tethyan ,this study,caco3,"Speijer & Wagner, 2002",https://doi.org/10.1130/0-8137-2356-6.533,22.85,23.52,caco3,33.006,26.52,32.85,11.25,28.1,17.5,22.85,11.25,55.12,28.59,3,,,,,,,,,,,,,,,,,,,,,,,,paleodepth match with cgenie topography
Wadi Nukhl,>500,500,"Speijer & Wagner, 2002",https://doi.org/10.1130/0-8137-2356-6.533,Tethyan ,this study,caco3,"Speijer & Wagner, 2002",https://doi.org/10.1130/0-8137-2356-6.533,22.55,26.039,caco3,33.359,29.039,32.55,13.05,27.95,19.45,22.55,13.05,51.5,5.6,8,36.49,0,1,,,,,,,,,,,,,,,,,,,,,paleodepth match with cgenie topography
Zumaya,600-1500,1000,"Canudo et al., 1995; Alegret et al., 2009",https://doi.org/10.1016/0031-0182(95)00073-U; http://doi.org/10.2110/palo.2008.p08-057r,Tethyan ,this study,caco3,"Schmitz et al., 1997",https://doi.org/10.1016/S0031-0182(97)00024-2,-10.35,37.8,caco3,-2.25,43.3,2.65,31.15,-3.45,37.35,-7.35,31.15,53.65527335,11.46496509,24,3.53768512,3.22665339,9,,,,,,,,,,,,,,,,,,,,,
Trabakua Pass,600-1500,1000,"this study, use nearby Zumaya paleodepth",,Tethyan ,this study,caco3,"Bolle, 1998",http://doi.org/10.5169/seals-168405,-10.58,37.8,caco3,-2.48,43.3,2.65,31.15,-3.45,37.35,-7.35,31.15,45.83,9.060679,11,9.7,1.481992,3,,,,,,,,,,,,,,,,,,,,,
Dzhengutay,280,280,"this study, based on cGENIE topo",,Tethyan ,this study,caco3,Gavrilov et al 2009,https://www.academia.edu/download/35226154/2009_Gavr_Scherb_Golov_Pokr_NZ.pdf,44.35,42.69,caco3,47.24,42.69,44.35,36.15,42.05,41.75,34.35,36.15,22.74798648,14.27282676,6,15.16008472,8.210206296,8,,,,,,,,,,,,,,,,,,,,,
Kheu,280,280,"this study, based on cGENIE topo",,Tethyan ,this study,caco3,Gavrilov et al 2003,https://doi.org/10.1130/0-8137-2369-8.147,41.75,43.4,caco3,43.63,43.4,41.75,35.85,39.15,41.45,31.75,35.85,12.99153402,0,1,1.069806475,0.762923554,2,,,,,,,,,,,,,,,,,,,,,
Sulak River,280,280,"this study, based on cGENIE topo",,Tethyan ,this study,caco3,Gavrilov et al 2003,https://doi.org/10.1130/0-8137-2369-8.147,44.35,42.856151,caco3,46.857568,42.856151,44.35,36.15,42.05,41.75,34.35,36.15,49.160182,8.803752705,3,2.425167031,0.063054283,3,,,,,,,,,,,,,,,,,,,,,
Torangly,80,80,"this study, based on cGENIE topo",,Tethyan ,this study,caco3,Gavrilov et al 2003,https://doi.org/10.1130/0-8137-2369-8.147,55.55,38.13,caco3,58.42,38.13,55.55,32.95,53.65,37.85,45.55,32.95,20.85986236,2.29335632,2,1.342352149,0.932677239,2,,,,,,,,,,,,,,,,,,,,,
Forada,600-1000,1000,Giusberti et al 2007,https://doi.org/10.1130/B25994.1,Tethyan ,this study,caco3,Giusberti et al 2007,https://doi.org/10.1130/B25994.1,10.05,40,caco3,12.02,46.04,15.05,31.05,9.75,37.75,5.05,31.05,50.21428571,6.782880843,14,13.02,6.818504235,5,,,,,,,,,,,,,,,,,,,,,
Mine,80,80,"this study, based on cGENIE topography",,Tethyan ,this study,caco3,"Kaya et al., 2022",https://doi.org/10.1038/s43247-022-00451-4,59.85,39.84766667,caco3,74.50206667,39.84766667,71.85,37.35,71.25,40.95,61.85,37.35,10.91603449,2.096278754,4,7.148252194,4.047335348,7,,,,,,,,,,,,,,,,,,,,,"cgenie: land, not shallow sea"
Howards Tract,120-140,130,"Robinson & Spivey, 2019",https://doi.org/10.1029/2018PA003357,NorthAtlantic,this study,caco3,"Li et al., 2022",https://doi.org/10.1038/s41467-022-33390-x,-59.5,38.44827,caco3,-76.14159,38.44827,,,,,,,5.435897436,1.155278668,13,0.393777777,0.162931108,6,,,,,,,,,,,,,,,,,,,,,
Bass River,140-150,145,"Stassen et al., 2015", https://doi.org/10.1016/j.marmicro.2014.12.001,NorthAtlantic,"Bralower et al., 2018",caco3,"John et al., 2008",https://doi.org/10.1029/2007PA001465,-57.78841,39.6,caco3,-74.43,39.6,-46.05,34.95,-55.55,38.45,-55.55,38.45,7.17,,,1.33,,,,,,,,,,,,,,,,,,,,,,,
South Dover Bridge,120-130,125,"Robinson & Spivey, 2019",https://doi.org/10.1029/2018PA003357,NorthAtlantic,"Bralower et al., 2018",caco3,"Self-Trail et al., 2012",https://doi.org/10.1016/j.marmicro.2012.05.003,-59.36535444,38.74694444,caco3,-76.00694444,38.74694444,,,,,,,16.57,,,0,,,,,,,,,,,,,,,,,,,,,,,
Wilson Lake,100-110,105,"Stassen et al., 2015", https://doi.org/10.1016/j.marmicro.2014.12.001,NorthAtlantic,"Bralower et al., 2018",caco3,"John et al., 2008",https://doi.org/10.1029/2007PA001465,-58.40561,39.65978333,caco3,-75.0472,39.65978333,,,,,,,3.51,,,0,,,,,,,,,,,,,,,,,,,,,,,
Cam-Dor,120-130,125,"Robinson & Spivey, 2019",https://doi.org/10.1029/2018PA003357,NorthAtlantic,"Bralower et al., 2018",caco3,"Bralower et al., 2018",https://doi.org/10.1029/2018PA003382,-59.386612,38.533587,caco3,-76.028202,38.533587,,,,,,,8.16,,,0.01,,,,,,,,,,,,,,,,,,,,,,,
Millville,100-110,105,"Stassen et al., 2015", https://doi.org/10.1016/j.marmicro.2014.12.001,NorthAtlantic,"Bralower et al., 2018",caco3,"Wright & Schaller, 2013",https://doi.org/10.1073/pnas.1309188110,-58.35841,39.4,caco3,-75,39.4,-47.25,34.25,-56.75,37.65,-56,38.25,3.6,,,0.3,,,,,,,,,,,,,,,,,,,,,,,
Tawanui,500-1000,750,"Kaiho et al., 1993",https://doi.org/10.1016/0377-8398(93)90053-Z,Pacific,this study,caco3,"Crouch et al., 2003",https://doi.org/10.1016/S0031-0182(03)00334-1,-165.95,-46.95,caco3,176.38,-40.38,-165.95,-46.95,-171.15,-53.05,-165.95,-46.95,12.6,5,6,9.6,0.4,2,,12.6,5,6,9.6,0.4,2,12.107,3.062,14,20.13333333,5.052062285,3,,,,,,,,
mid-Waipara,500,500,"Hollis et al., 2012",https://doi.org/10.1016/j.epsl.2012.06.024,Pacific,this study,caco3,"Hollis et al., 2012",https://doi.org/10.1016/j.epsl.2012.06.024,-169.58,-48.75,caco3,172.75,-43.06666667,-157.15,-48.75,-160.85,-54.85,-161,-48.75,0,0,10,0.2,0.1,2,,0,0,10,0.2,0.1,2,0.166,0.057,2,,,,,,,,,,,
Mead Stream,200-1000,600,"Hollis et al., 2005",https://doi.org/10.1016/j.palaeo.2004.09.011,Pacific,"Bralower et al., 2018",caco3,Slotnick et al. 2012,https://doi.org/10.1086/666743,-169,-47,caco3,173.6,-41.9,,,,,,,62.2,,,36.81,,,,,,,,,,,,,,,,,,,,,,,